RTU MIREA 1 (RS51S)     
1 61785U 24199BC  26089.16637804  .00055971  00000+0  88022-3 0  9991
2 61785  97.3081 324.0349 0009317 198.5829 161.5086 15.53392591122177
TEVEL2-4                
1 63213U 25052D   26088.95090759  .00026898  00000+0  87701-3 0  9995
2 63213  97.3998 345.3395 0004103  57.6048 302.5590 15.31772810 57979
TEVEL2-5                
1 63214U 25052E   26089.15953166  .00024355  00000+0  79760-3 0  9991
2 63214  97.4003 345.5161 0004083  57.3439 302.8196 15.31651674 58003
TEVEL2-6                
1 63215U 25052F   26088.97389980  .00026943  00000+0  88316-3 0  9990
2 63215  97.3997 345.3160 0004165  56.8836 303.2805 15.31601298 57972
TEVEL2-1                
1 63217U 25052H   26088.19360904  .00026671  00000+0  88738-3 0  9997
2 63217  97.3975 344.2497 0004613  67.1020 293.0707 15.31119335 57848
TEVEL2-3                
1 63218U 25052J   26089.17097854  .00024653  00000+0  81838-3 0  9990
2 63218  97.3978 345.2378 0004604  66.2521 293.9202 15.31208696 57991
TEVEL2-2                
1 63219U 25052K   26088.97846722  .00026423  00000+0  87802-3 0  9998
2 63219  97.3973 345.0335 0004539  66.0809 294.0907 15.31162964 57960
TEVEL2-9                
1 63237U 25052AD  26089.18623450  .00023242  00000+0  81541-3 0  9993
2 63237  97.4038 344.7736 0008267  69.5532 290.6595 15.29401892 57943
TEVEL2-7                
1 63238U 25052AE  26089.14811168  .00021589  00000+0  76327-3 0  9993
2 63238  97.4040 344.6817 0008412  69.7761 290.4383 15.29165143 57932
TEVEL2-8                
1 63239U 25052AF  26089.15542114  .00021626  00000+0  76502-3 0  9994
2 63239  97.4038 344.6686 0008421  70.5060 289.7089 15.29144996 57933
HADES-ICM               
1 63492U 25052BN  26089.15905153  .00230187  00000+0  24024-2 0  9996
2 63492  97.3914 350.4451 0007535  77.7885 282.4217 15.63733768 58337
INNOSAT 16 (RS92S7)     
1 64878U 25155C   26089.13203112  .00009295  00000+0  38014-3 0  9992
2 64878  97.4490  56.6012 0012649 102.2456 258.0198 15.24492866 68622
GEOSCAN 6 (RS92S6)      
1 64879U 25155D   26089.14390726  .00016030  00000+0  57911-3 0  9994
2 64879  97.4486  57.5177 0010230  95.8719 264.3686 15.28504241 68686
GEOSCAN 1 (RS92S1)      
1 64880U 25155E   26089.17378307  .00017648  00000+0  62823-3 0  9994
2 64880  97.4486  57.6345 0010199  96.0481 264.1921 15.28967219 68698
239ALFEROV (RS61S)      
1 64881U 25155F   26089.17808182  .00021350  00000+0  72101-3 0  9999
2 64881  97.4490  57.9635 0009942  95.7787 264.4587 15.30646239 68711
GEOSCAN 2 (RS92S2)      
1 64890U 25155Q   26089.18211642  .00017104  00000+0  60358-3 0  9992
2 64890  97.4484  57.7624 0009523  85.7815 274.4513 15.29266119 68708
GEOSCAN 5 (RS92S5)      
1 64891U 25155R   26089.18379456  .00021340  00000+0  71356-3 0  9998
2 64891  97.4483  58.0758 0008745 100.3671 259.8557 15.30978554 68721
GEOSCAN 4 (RS92S4)      
1 64892U 25155S   26089.17475116  .00021300  00000+0  70975-3 0  9990
2 64892  97.4486  58.0954 0008796 100.7034 259.5197 15.31090508 68728
GEOSCAN 3 (RS92S3)      
1 64893U 25155T   26089.13405285  .00026899  00000+0  85515-3 0  9991
2 64893  97.4475  58.2867 0008551 101.7619 258.4583 15.32558531 68735
INNOSAT 3 (RS92S0)      
1 64894U 25155U   26089.16095086  .00046069  00000+0  12167-2 0  9992
2 64894  97.4441  59.1222 0008524 100.5936 259.6270 15.38270273 68795
KNACKSAT-2              
1 67683U 98067XZ  26089.06615953  .00053219  00000+0  82160-3 0  9999
2 67683  51.6326 330.4771 0010084 259.9435 100.0418 15.53540643  7951
